STARLINK-4179           
1 53275U 22086AK  24037.93132533  .00002792  00000+0  19348-3 0  9992
2 53275  53.2191   3.7884 0001577 110.3527 249.7635 15.08829646 86193
STARLINK-4174           
1 53276U 22086AL  24038.13740640  .00001643  00000+0  12129-3 0  9994
2 53276  53.2180   2.8602 0001389  79.5982 280.5167 15.08847473 86058
STARLINK-4178           
1 53277U 22086AM  24037.92396580 -.00000300  00000+0 -71902-6 0  9999
2 53277  53.2192   3.8488 0001683 106.8469 253.2708 15.08839283 86199
STARLINK-4180           
1 53278U 22086AN  24037.92764480  .00001130  00000+0  89120-4 0  9997
2 53278  53.2199   3.8085 0002326 109.3460 250.7784 15.08841435 86192
STARLINK-4169           
1 53280U 22086AQ  24038.04765903  .00000222  00000+0  32061-4 0  9998
2 53280  53.2185 317.9430 0001502  86.7017 273.4147 15.08846740 86687
STARLINK-4182           
1 53281U 22086AR  24037.18428060 -.00000336  00000+0 -30111-5 0  9996
2 53281  53.2196   7.1492 0001810  89.4258 270.6942 15.08848462 86084
STARLINK-4164           
1 53282U 22086AS  24038.11900421  .00000158  00000+0  28025-4 0  9997
2 53282  53.2187   2.9385 0001665 106.3015 253.8161 15.08837073 86056
STARLINK-4175           
1 53283U 22086AT  24038.17420659 -.00000979  00000+0 -43448-4 0  9993
2 53283  53.2184   2.6924 0001519 100.9998 259.1165 15.08839446 86068
STARLINK-4172           
1 53284U 22086AU  24038.18155933  .00000307  00000+0  37384-4 0  9990
2 53284  53.2200   2.6665 0001753 107.6839 252.4344 15.08843344 86065
STARLINK-4173           
1 53285U 22086AV  24037.23580050  .00000467  00000+0  47434-4 0  9992
2 53285  53.2192   6.9047 0001733  81.2797 278.8392 15.08847517 86088
STARLINK-4165           
1 53286U 22086AW  24038.17147875 -.00001086  00000+0 -50124-4 0  9991
2 53286  53.2193   2.7233 0001894 119.8689 240.2491 15.08844352 86062
STARLINK-4107           
1 53287U 22086AX  24037.29468328  .00000529  00000+0  51348-4 0  9991
2 53287  53.2193   6.6440 0001570  82.1600 277.9571 15.08842170 86097
STARLINK-4162           
1 53288U 22086AY  24038.16683716  .00001000  00000+0  80884-4 0  9991
2 53288  53.2203   2.7294 0001743  78.9434 281.1754 15.08857441 86068
STARLINK-4176           
1 53289U 22086AZ  24038.13236200 -.00000197  00000+0  57405-5 0  9992
2 53289  53.2203 358.0305 0001671  97.6479 262.4703 15.08841804 86125
STARLINK-4149           
1 53290U 22086BA  24037.23211982  .00000986  00000+0  80024-4 0  9991
2 53290  53.2201   6.9222 0001759  87.9099 272.2095 15.08847318 86083
STARLINK-4166           
1 53291U 22086BB  24038.16543217 -.00000248  00000+0  25370-5 0  9990
2 53291  53.2201 357.5258 0001716 109.7637 250.3540 15.08847112 86132
STARLINK-4159           
1 53292U 22086BC  24038.17054214 -.00000799  00000+0 -32094-4 0  9998
2 53292  53.2179   2.9012 0001511  97.8915 262.2248 15.08845330 86064
