[{"OBJECT_NAME":"STARLINK-4179","OBJECT_ID":"2022-086AK","EPOCH":"2024-02-06T22:21:06.508512","MEAN_MOTION":15.08829646,"ECCENTRICITY":0.0001577,"INCLINATION":53.2191,"RA_OF_ASC_NODE":3.7884,"ARG_OF_PERICENTER":110.3527,"MEAN_ANOMALY":249.7635,"EPHEMERIS_TYPE":0,"CLASSIFICATION_TYPE":"U","NORAD_CAT_ID":53275,"ELEMENT_SET_NO":999,"REV_AT_EPOCH":8619,"BSTAR":0.00019348,"MEAN_MOTION_DOT":2.792e-5,"MEAN_MOTION_DDOT":0},{"OBJECT_NAME":"STARLINK-4174","OBJECT_ID":"2022-086AL","EPOCH":"2024-02-07T03:17:51.912960","MEAN_MOTION":15.08847473,"ECCENTRICITY":0.0001389,"INCLINATION":53.218,"RA_OF_ASC_NODE":2.8602,"ARG_OF_PERICENTER":79.5982,"MEAN_ANOMALY":280.5167,"EPHEMERIS_TYPE":0,"CLASSIFICATION_TYPE":"U","NORAD_CAT_ID":53276,"ELEMENT_SET_NO":999,"REV_AT_EPOCH":8605,"BSTAR":0.00012129,"MEAN_MOTION_DOT":1.643e-5,"MEAN_MOTION_DDOT":0},{"OBJECT_NAME":"STARLINK-4178","OBJECT_ID":"2022-086AM","EPOCH":"2024-02-06T22:10:30.645120","MEAN_MOTION":15.08839283,"ECCENTRICITY":0.0001683,"INCLINATION":53.2192,"RA_OF_ASC_NODE":3.8488,"ARG_OF_PERICENTER":106.8469,"MEAN_ANOMALY":253.2708,"EPHEMERIS_TYPE":0,"CLASSIFICATION_TYPE":"U","NORAD_CAT_ID":53277,"ELEMENT_SET_NO":999,"REV_AT_EPOCH":8619,"BSTAR":-7.1902e-7,"MEAN_MOTION_DOT":-3.0e-6,"MEAN_MOTION_DDOT":0},{"OBJECT_NAME":"STARLINK-4180","OBJECT_ID":"2022-086AN","EPOCH":"2024-02-06T22:15:48.510720","MEAN_MOTION":15.08841435,"ECCENTRICITY":0.0002326,"INCLINATION":53.2199,"RA_OF_ASC_NODE":3.8085,"ARG_OF_PERICENTER":109.346,"MEAN_ANOMALY":250.7784,"EPHEMERIS_TYPE":0,"CLASSIFICATION_TYPE":"U","NORAD_CAT_ID":53278,"ELEMENT_SET_NO":999,"REV_AT_EPOCH":8619,"BSTAR":8.912e-5,"MEAN_MOTION_DOT":1.13e-5,"MEAN_MOTION_DDOT":0},{"OBJECT_NAME":"STARLINK-4169","OBJECT_ID":"2022-086AQ","EPOCH":"2024-02-07T01:08:37.740192","MEAN_MOTION":15.0884674,"ECCENTRICITY":0.0001502,"INCLINATION":53.2185,"RA_OF_ASC_NODE":317.943,"ARG_OF_PERICENTER":86.7017,"MEAN_ANOMALY":273.4147,"EPHEMERIS_TYPE":0,"CLASSIFICATION_TYPE":"U","NORAD_CAT_ID":53280,"ELEMENT_SET_NO":999,"REV_AT_EPOCH":8668,"BSTAR":3.2061e-5,"MEAN_MOTION_DOT":2.22e-6,"MEAN_MOTION_DDOT":0},{"OBJECT_NAME":"STARLINK-4182","OBJECT_ID":"2022-086AR","EPOCH":"2024-02-06T04:25:21.843840","MEAN_MOTION":15.08848462,"ECCENTRICITY":0.000181,"INCLINATION":53.2196,"RA_OF_ASC_NODE":7.1492,"ARG_OF_PERICENTER":89.4258,"MEAN_ANOMALY":270.6942,"EPHEMERIS_TYPE":0,"CLASSIFICATION_TYPE":"U","NORAD_CAT_ID":53281,"ELEMENT_SET_NO":999,"REV_AT_EPOCH":8608,"BSTAR":-3.0111e-6,"MEAN_MOTION_DOT":-3.36e-6,"MEAN_MOTION_DDOT":0},{"OBJECT_NAME":"STARLINK-4164","OBJECT_ID":"2022-086AS","EPOCH":"2024-02-07T02:51:21.963744","MEAN_MOTION":15.08837073,"ECCENTRICITY":0.0001665,"INCLINATION":53.2187,"RA_OF_ASC_NODE":2.9385,"ARG_OF_PERICENTER":106.3015,"MEAN_ANOMALY":253.8161,"EPHEMERIS_TYPE":0,"CLASSIFICATION_TYPE":"U","NORAD_CAT_ID":53282,"ELEMENT_SET_NO":999,"REV_AT_EPOCH":8605,"BSTAR":2.8025e-5,"MEAN_MOTION_DOT":1.58e-6,"MEAN_MOTION_DDOT":0},{"OBJECT_NAME":"STARLINK-4175","OBJECT_ID":"2022-086AT","EPOCH":"2024-02-07T04:10:51.449376","MEAN_MOTION":15.08839446,"ECCENTRICITY":0.0001519,"INCLINATION":53.2184,"RA_OF_ASC_NODE":2.6924,"ARG_OF_PERICENTER":100.9998,"MEAN_ANOMALY":259.1165,"EPHEMERIS_TYPE":0,"CLASSIFICATION_TYPE":"U","NORAD_CAT_ID":53283,"ELEMENT_SET_NO":999,"REV_AT_EPOCH":8606,"BSTAR":-4.3448e-5,"MEAN_MOTION_DOT":-9.79e-6,"MEAN_MOTION_DDOT":0},{"OBJECT_NAME":"STARLINK-4172","OBJECT_ID":"2022-086AU","EPOCH":"2024-02-07T04:21:26.726112","MEAN_MOTION":15.08843344,"ECCENTRICITY":0.0001753,"INCLINATION":53.22,"RA_OF_ASC_NODE":2.6665,"ARG_OF_PERICENTER":107.6839,"MEAN_ANOMALY":252.4344,"EPHEMERIS_TYPE":0,"CLASSIFICATION_TYPE":"U","NORAD_CAT_ID":53284,"ELEMENT_SET_NO":999,"REV_AT_EPOCH":8606,"BSTAR":3.7384e-5,"MEAN_MOTION_DOT":3.07e-6,"MEAN_MOTION_DDOT":0},{"OBJECT_NAME":"STARLINK-4173","OBJECT_ID":"2022-086AV","EPOCH":"2024-02-06T05:39:33.163200","MEAN_MOTION":15.08847517,"ECCENTRICITY":0.0001733,"INCLINATION":53.2192,"RA_OF_ASC_NODE":6.9047,"ARG_OF_PERICENTER":81.2797,"MEAN_ANOMALY":278.8392,"EPHEMERIS_TYPE":0,"CLASSIFICATION_TYPE":"U","NORAD_CAT_ID":53285,"ELEMENT_SET_NO":999,"REV_AT_EPOCH":8608,"BSTAR":4.7434e-5,"MEAN_MOTION_DOT":4.67e-6,"MEAN_MOTION_DDOT":0},{"OBJECT_NAME":"STARLINK-4165","OBJECT_ID":"2022-086AW","EPOCH":"2024-02-07T04:06:55.764000","MEAN_MOTION":15.08844352,"ECCENTRICITY":0.0001894,"INCLINATION":53.2193,"RA_OF_ASC_NODE":2.7233,"ARG_OF_PERICENTER":119.8689,"MEAN_ANOMALY":240.2491,"EPHEMERIS_TYPE":0,"CLASSIFICATION_TYPE":"U","NORAD_CAT_ID":53286,"ELEMENT_SET_NO":999,"REV_AT_EPOCH":8606,"BSTAR":-5.0124e-5,"MEAN_MOTION_DOT":-1.086e-5,"MEAN_MOTION_DDOT":0},{"OBJECT_NAME":"STARLINK-4107","OBJECT_ID":"2022-086AX","EPOCH":"2024-02-06T07:04:20.635392","MEAN_MOTION":15.0884217,"ECCENTRICITY":0.000157,"INCLINATION":53.2193,"RA_OF_ASC_NODE":6.644,"ARG_OF_PERICENTER":82.16,"MEAN_ANOMALY":277.9571,"EPHEMERIS_TYPE":0,"CLASSIFICATION_TYPE":"U","NORAD_CAT_ID":53287,"ELEMENT_SET_NO":999,"REV_AT_EPOCH":8609,"BSTAR":5.1348e-5,"MEAN_MOTION_DOT":5.29e-6,"MEAN_MOTION_DDOT":0},{"OBJECT_NAME":"STARLINK-4162","OBJECT_ID":"2022-086AY","EPOCH":"2024-02-07T04:00:14.730624","MEAN_MOTION":15.08857441,"ECCENTRICITY":0.0001743,"INCLINATION":53.2203,"RA_OF_ASC_NODE":2.7294,"ARG_OF_PERICENTER":78.9434,"MEAN_ANOMALY":281.1754,"EPHEMERIS_TYPE":0,"CLASSIFICATION_TYPE":"U","NORAD_CAT_ID":53288,"ELEMENT_SET_NO":999,"REV_AT_EPOCH":8606,"BSTAR":8.0884e-5,"MEAN_MOTION_DOT":1.0e-5,"MEAN_MOTION_DDOT":0},{"OBJECT_NAME":"STARLINK-4176","OBJECT_ID":"2022-086AZ","EPOCH":"2024-02-07T03:10:36.076800","MEAN_MOTION":15.08841804,"ECCENTRICITY":0.0001671,"INCLINATION":53.2203,"RA_OF_ASC_NODE":358.0305,"ARG_OF_PERICENTER":97.6479,"MEAN_ANOMALY":262.4703,"EPHEMERIS_TYPE":0,"CLASSIFICATION_TYPE":"U","NORAD_CAT_ID":53289,"ELEMENT_SET_NO":999,"REV_AT_EPOCH":8612,"BSTAR":5.7405e-6,"MEAN_MOTION_DOT":-1.97e-6,"MEAN_MOTION_DDOT":0},{"OBJECT_NAME":"STARLINK-4149","OBJECT_ID":"2022-086BA","EPOCH":"2024-02-06T05:34:15.152448","MEAN_MOTION":15.08847318,"ECCENTRICITY":0.0001759,"INCLINATION":53.2201,"RA_OF_ASC_NODE":6.9222,"ARG_OF_PERICENTER":87.9099,"MEAN_ANOMALY":272.2095,"EPHEMERIS_TYPE":0,"CLASSIFICATION_TYPE":"U","NORAD_CAT_ID":53290,"ELEMENT_SET_NO":999,"REV_AT_EPOCH":8608,"BSTAR":8.0024e-5,"MEAN_MOTION_DOT":9.86e-6,"MEAN_MOTION_DDOT":0},{"OBJECT_NAME":"STARLINK-4166","OBJECT_ID":"2022-086BB","EPOCH":"2024-02-07T03:58:13.339488","MEAN_MOTION":15.08847112,"ECCENTRICITY":0.0001716,"INCLINATION":53.2201,"RA_OF_ASC_NODE":357.5258,"ARG_OF_PERICENTER":109.7637,"MEAN_ANOMALY":250.354,"EPHEMERIS_TYPE":0,"CLASSIFICATION_TYPE":"U","NORAD_CAT_ID":53291,"ELEMENT_SET_NO":999,"REV_AT_EPOCH":8613,"BSTAR":2.537e-6,"MEAN_MOTION_DOT":-2.48e-6,"MEAN_MOTION_DDOT":0},{"OBJECT_NAME":"STARLINK-4159","OBJECT_ID":"2022-086BC","EPOCH":"2024-02-07T04:05:34.840896","MEAN_MOTION":15.0884533,"ECCENTRICITY":0.0001511,"INCLINATION":53.2179,"RA_OF_ASC_NODE":2.9012,"ARG_OF_PERICENTER":97.8915,"MEAN_ANOMALY":262.2248,"EPHEMERIS_TYPE":0,"CLASSIFICATION_TYPE":"U","NORAD_CAT_ID":53292,"ELEMENT_SET_NO":999,"REV_AT_EPOCH":8606,"BSTAR":-3.2094e-5,"MEAN_MOTION_DOT":-7.99e-6,"MEAN_MOTION_DDOT":0}]
